CUTE-1 (CO-55)          
1 27844U 03031E   26089.00684314  .00000426  00000+0  20352-3 0  9999
2 27844  98.6772  98.5540 0010589  59.5467 300.6757 14.24282911180401
CUBESAT XI-IV (CO-57)   
1 27848U 03031J   26088.95577338  .00000364  00000+0  17891-3 0  9998
2 27848  98.6805  98.2801 0010600  76.1126 284.1231 14.23575477180101
CUBESAT XI-V            
1 28895U 05043F   26088.96759360  .00002504  00000+0  40282-3 0  9992
2 28895  98.2870 242.9806 0015386  97.3603 262.9353 14.72402911 90099
CUTE-1.7+APD II (CO-65) 
1 32785U 08021C   26089.14377200  .00008471  00000+0  54456-3 0  9991
2 32785  97.8230  68.9898 0007461 305.3666  54.6864 15.08653285973275
CANX-2                  
1 32790U 08021H   26089.18627188  .00006197  00000+0  44064-3 0  9991
2 32790  97.8587  67.4918 0009008 320.5536  39.5033 15.05014195972926
SEEDS II (CO-66)        
1 32791U 08021J   26088.94022278  .00027859  00000+0  96132-3 0  9995
2 32791  97.7518  83.2286 0002002 173.1880 186.9387 15.29940136975162
SWISSCUBE               
1 35932U 09051B   26089.00546619  .00001508  00000+0  30847-3 0  9991
2 35932  98.4083 355.5074 0008039  96.8160 263.3955 14.62314702877583
BEESAT-1                
1 35933U 09051C   26089.17973298  .00001263  00000+0  26417-3 0  9993
2 35933  98.4012 355.4833 0006403 107.5359 252.6542 14.61580152877644
ITUPSAT1                
1 35935U 09051E   26089.17025375  .00001149  00000+0  24792-3 0  9996
2 35935  98.4099 354.7479 0008485 118.5257 241.6798 14.60311063877205
TISAT 1                 
1 36799U 10035E   26088.07461447  .00025499  00000+0  91959-3 0  9994
2 36799  98.0655  27.7471 0003635 128.8120 231.3443 15.28514657855457
AEROCUBE 4.5A           
1 38767U 12048K   26088.99293053  .00132889  00000+0  12226-2 0  9995
2 38767  64.6357 309.1694 0036723 208.6629 151.2501 15.66137267360165
STRAND-1                
1 39090U 13009E   26088.96440086  .00000444  00000+0  16384-3 0  9991
2 39090  98.3904 271.1534 0009814 106.3434 253.8833 14.37112025685683
BRITE-AUSTRIA           
1 39091U 13009F   26088.94349480  .00000279  00000+0  10959-3 0  9994
2 39091  98.3973 270.3458 0011303 114.5024 245.7342 14.36507692685679
