[
    {
        "ARG_OF_PERICENTER": 59.5467,
        "BSTAR": 0.00020352,
        "CLASSIFICATION_TYPE": "U",
        "ECCENTRICITY": 0.0010589,
        "ELEMENT_SET_NO": 999,
        "EPHEMERIS_TYPE": 0,
        "EPOCH": "2026-03-30T00:09:51.247296",
        "INCLINATION": 98.6772,
        "MEAN_ANOMALY": 300.6757,
        "MEAN_MOTION": 14.24282911,
        "MEAN_MOTION_DDOT": 0,
        "MEAN_MOTION_DOT": 4.26e-06,
        "NORAD_CAT_ID": 27844,
        "OBJECT_ID": "2003-031E",
        "OBJECT_NAME": "CUTE-1 (CO-55)",
        "RA_OF_ASC_NODE": 98.554,
        "REV_AT_EPOCH": 18040
    },
    {
        "ARG_OF_PERICENTER": 76.1126,
        "BSTAR": 0.00017891,
        "CLASSIFICATION_TYPE": "U",
        "ECCENTRICITY": 0.00106,
        "ELEMENT_SET_NO": 999,
        "EPHEMERIS_TYPE": 0,
        "EPOCH": "2026-03-29T22:56:18.820032",
        "INCLINATION": 98.6805,
        "MEAN_ANOMALY": 284.1231,
        "MEAN_MOTION": 14.23575477,
        "MEAN_MOTION_DDOT": 0,
        "MEAN_MOTION_DOT": 3.64e-06,
        "NORAD_CAT_ID": 27848,
        "OBJECT_ID": "2003-031J",
        "OBJECT_NAME": "CUBESAT XI-IV (CO-57)",
        "RA_OF_ASC_NODE": 98.2801,
        "REV_AT_EPOCH": 18010
    },
    {
        "ARG_OF_PERICENTER": 97.3603,
        "BSTAR": 0.00040282,
        "CLASSIFICATION_TYPE": "U",
        "ECCENTRICITY": 0.0015386,
        "ELEMENT_SET_NO": 999,
        "EPHEMERIS_TYPE": 0,
        "EPOCH": "2026-03-29T23:13:20.087040",
        "INCLINATION": 98.287,
        "MEAN_ANOMALY": 262.9353,
        "MEAN_MOTION": 14.72402911,
        "MEAN_MOTION_DDOT": 0,
        "MEAN_MOTION_DOT": 2.504e-05,
        "NORAD_CAT_ID": 28895,
        "OBJECT_ID": "2005-043F",
        "OBJECT_NAME": "CUBESAT XI-V",
        "RA_OF_ASC_NODE": 242.9806,
        "REV_AT_EPOCH": 9009
    },
    {
        "ARG_OF_PERICENTER": 305.3666,
        "BSTAR": 0.00054456,
        "CLASSIFICATION_TYPE": "U",
        "ECCENTRICITY": 0.0007461,
        "ELEMENT_SET_NO": 999,
        "EPHEMERIS_TYPE": 0,
        "EPOCH": "2026-03-30T03:27:01.900800",
        "INCLINATION": 97.823,
        "MEAN_ANOMALY": 54.6864,
        "MEAN_MOTION": 15.08653285,
        "MEAN_MOTION_DDOT": 0,
        "MEAN_MOTION_DOT": 8.471e-05,
        "NORAD_CAT_ID": 32785,
        "OBJECT_ID": "2008-021C",
        "OBJECT_NAME": "CUTE-1.7+APD II (CO-65)",
        "RA_OF_ASC_NODE": 68.9898,
        "REV_AT_EPOCH": 97327
    },
    {
        "ARG_OF_PERICENTER": 320.5536,
        "BSTAR": 0.00044064,
        "CLASSIFICATION_TYPE": "U",
        "ECCENTRICITY": 0.0009008,
        "ELEMENT_SET_NO": 999,
        "EPHEMERIS_TYPE": 0,
        "EPOCH": "2026-03-30T04:28:13.890432",
        "INCLINATION": 97.8587,
        "MEAN_ANOMALY": 39.5033,
        "MEAN_MOTION": 15.05014195,
        "MEAN_MOTION_DDOT": 0,
        "MEAN_MOTION_DOT": 6.197e-05,
        "NORAD_CAT_ID": 32790,
        "OBJECT_ID": "2008-021H",
        "OBJECT_NAME": "CANX-2",
        "RA_OF_ASC_NODE": 67.4918,
        "REV_AT_EPOCH": 97292
    },
    {
        "ARG_OF_PERICENTER": 173.188,
        "BSTAR": 0.00096132,
        "CLASSIFICATION_TYPE": "U",
        "ECCENTRICITY": 0.0002002,
        "ELEMENT_SET_NO": 999,
        "EPHEMERIS_TYPE": 0,
        "EPOCH": "2026-03-29T22:33:55.248192",
        "INCLINATION": 97.7518,
        "MEAN_ANOMALY": 186.9387,
        "MEAN_MOTION": 15.29940136,
        "MEAN_MOTION_DDOT": 0,
        "MEAN_MOTION_DOT": 0.00027859,
        "NORAD_CAT_ID": 32791,
        "OBJECT_ID": "2008-021J",
        "OBJECT_NAME": "SEEDS II (CO-66)",
        "RA_OF_ASC_NODE": 83.2286,
        "REV_AT_EPOCH": 97516
    },
    {
        "ARG_OF_PERICENTER": 96.816,
        "BSTAR": 0.00030847,
        "CLASSIFICATION_TYPE": "U",
        "ECCENTRICITY": 0.0008039,
        "ELEMENT_SET_NO": 999,
        "EPHEMERIS_TYPE": 0,
        "EPOCH": "2026-03-30T00:07:52.278816",
        "INCLINATION": 98.4083,
        "MEAN_ANOMALY": 263.3955,
        "MEAN_MOTION": 14.62314702,
        "MEAN_MOTION_DDOT": 0,
        "MEAN_MOTION_DOT": 1.508e-05,
        "NORAD_CAT_ID": 35932,
        "OBJECT_ID": "2009-051B",
        "OBJECT_NAME": "SWISSCUBE",
        "RA_OF_ASC_NODE": 355.5074,
        "REV_AT_EPOCH": 87758
    },
    {
        "ARG_OF_PERICENTER": 107.5359,
        "BSTAR": 0.00026417,
        "CLASSIFICATION_TYPE": "U",
        "ECCENTRICITY": 0.0006403,
        "ELEMENT_SET_NO": 999,
        "EPHEMERIS_TYPE": 0,
        "EPOCH": "2026-03-30T04:18:48.929472",
        "INCLINATION": 98.4012,
        "MEAN_ANOMALY": 252.6542,
        "MEAN_MOTION": 14.61580152,
        "MEAN_MOTION_DDOT": 0,
        "MEAN_MOTION_DOT": 1.263e-05,
        "NORAD_CAT_ID": 35933,
        "OBJECT_ID": "2009-051C",
        "OBJECT_NAME": "BEESAT-1",
        "RA_OF_ASC_NODE": 355.4833,
        "REV_AT_EPOCH": 87764
    },
    {
        "ARG_OF_PERICENTER": 118.5257,
        "BSTAR": 0.00024792,
        "CLASSIFICATION_TYPE": "U",
        "ECCENTRICITY": 0.0008485,
        "ELEMENT_SET_NO": 999,
        "EPHEMERIS_TYPE": 0,
        "EPOCH": "2026-03-30T04:05:09.924000",
        "INCLINATION": 98.4099,
        "MEAN_ANOMALY": 241.6798,
        "MEAN_MOTION": 14.60311063,
        "MEAN_MOTION_DDOT": 0,
        "MEAN_MOTION_DOT": 1.149e-05,
        "NORAD_CAT_ID": 35935,
        "OBJECT_ID": "2009-051E",
        "OBJECT_NAME": "ITUPSAT1",
        "RA_OF_ASC_NODE": 354.7479,
        "REV_AT_EPOCH": 87720
    },
    {
        "ARG_OF_PERICENTER": 128.812,
        "BSTAR": 0.00091959,
        "CLASSIFICATION_TYPE": "U",
        "ECCENTRICITY": 0.0003635,
        "ELEMENT_SET_NO": 999,
        "EPHEMERIS_TYPE": 0,
        "EPOCH": "2026-03-29T01:47:26.690208",
        "INCLINATION": 98.0655,
        "MEAN_ANOMALY": 231.3443,
        "MEAN_MOTION": 15.28514657,
        "MEAN_MOTION_DDOT": 0,
        "MEAN_MOTION_DOT": 0.00025499,
        "NORAD_CAT_ID": 36799,
        "OBJECT_ID": "2010-035E",
        "OBJECT_NAME": "TISAT 1",
        "RA_OF_ASC_NODE": 27.7471,
        "REV_AT_EPOCH": 85545
    },
    {
        "ARG_OF_PERICENTER": 208.6629,
        "BSTAR": 0.0012226,
        "CLASSIFICATION_TYPE": "U",
        "ECCENTRICITY": 0.0036723,
        "ELEMENT_SET_NO": 999,
        "EPHEMERIS_TYPE": 0,
        "EPOCH": "2026-03-29T23:49:49.197792",
        "INCLINATION": 64.6357,
        "MEAN_ANOMALY": 151.2501,
        "MEAN_MOTION": 15.66137267,
        "MEAN_MOTION_DDOT": 0,
        "MEAN_MOTION_DOT": 0.00132889,
        "NORAD_CAT_ID": 38767,
        "OBJECT_ID": "2012-048K",
        "OBJECT_NAME": "AEROCUBE 4.5A",
        "RA_OF_ASC_NODE": 309.1694,
        "REV_AT_EPOCH": 36016
    },
    {
        "ARG_OF_PERICENTER": 106.3434,
        "BSTAR": 0.00016384,
        "CLASSIFICATION_TYPE": "U",
        "ECCENTRICITY": 0.0009814,
        "ELEMENT_SET_NO": 999,
        "EPHEMERIS_TYPE": 0,
        "EPOCH": "2026-03-29T23:08:44.234304",
        "INCLINATION": 98.3904,
        "MEAN_ANOMALY": 253.8833,
        "MEAN_MOTION": 14.37112025,
        "MEAN_MOTION_DDOT": 0,
        "MEAN_MOTION_DOT": 4.44e-06,
        "NORAD_CAT_ID": 39090,
        "OBJECT_ID": "2013-009E",
        "OBJECT_NAME": "STRAND-1",
        "RA_OF_ASC_NODE": 271.1534,
        "REV_AT_EPOCH": 68568
    },
    {
        "ARG_OF_PERICENTER": 114.5024,
        "BSTAR": 0.00010959,
        "CLASSIFICATION_TYPE": "U",
        "ECCENTRICITY": 0.0011303,
        "ELEMENT_SET_NO": 999,
        "EPHEMERIS_TYPE": 0,
        "EPOCH": "2026-03-29T22:38:37.950720",
        "INCLINATION": 98.3973,
        "MEAN_ANOMALY": 245.7342,
        "MEAN_MOTION": 14.36507692,
        "MEAN_MOTION_DDOT": 0,
        "MEAN_MOTION_DOT": 2.79e-06,
        "NORAD_CAT_ID": 39091,
        "OBJECT_ID": "2013-009F",
        "OBJECT_NAME": "BRITE-AUSTRIA",
        "RA_OF_ASC_NODE": 270.3458,
        "REV_AT_EPOCH": 68567
    }
]